ONEWEB-0529             
1 54145U 22138AJ  22317.91667824 -.00963326  00000+0 -12570+0 0  9997
2 54145  87.4379 209.7374 0014174 210.9142 130.7153 14.83547681  1308
ONEWEB-0531             
1 54146U 22138AK  22317.91667824 -.00030950  00000+0 -30982-2 0  9996
2 54146  87.2618 209.6321 0008960 214.9970 287.7837 14.91670354  1308
ONEWEB-0535             
1 54147U 22138AL  22317.91667824 -.00940396  00000+0 -11319+0 0  9991
2 54147  87.4402 209.7258 0009824 201.5273 250.7160 14.86837615  1308
ONEWEB-0536             
1 54148U 22138AM  22317.91667824 -.00029832  00000+0 -29958-2 0  9996
2 54148  87.2673 209.6474 0009029 207.8201 284.2604 14.91537326  1300
GSLV R/B                
1 54149U 22138AN  22317.75240576  .00001487  00000+0  16114-3 0  9995
2 54149  87.3902 209.7512 0024310 198.5007 161.5338 14.87291532  3271
GONETS-M 23             
1 54150U 22139A   22317.82311443  .00000010  00000+0  00000+0 0  9992
2 54150  82.5054  83.1530 0016837 196.7499 324.0792 12.41994590  2734
GONETS-M 24             
1 54151U 22139B   22317.73205271  .00000010  00000+0  00000+0 0  9994
2 54151  82.4975  83.1773 0012540 218.4041 309.9919 12.43606185  2721
GONETS-M 25             
1 54152U 22139C   22317.64973380  .00000010  00000+0  00000+0 0  9998
2 54152  82.5006  83.2292 0013844 212.3839 335.9925 12.43968634  2716
PROGRESS-MS 21          
1 54155U 22140A   22317.53212873  .00010589  00000+0  19331-3 0  9997
2 54155  51.6437 316.7566 0006974  69.3626  75.2329 15.49978811368345
STARLINK-5290           
1 54157U 22141A   22317.91667824  .00027208  00000+0  19809-3 0  9998
2 54157  53.2199  60.4215 0002292  38.3819 178.1498 15.73146104  2684
STARLINK-5297           
1 54158U 22141B   22317.91667824  .00026021  00000+0  18979-3 0  9998
2 54158  53.2182  60.4225 0002610  16.3640 198.3102 15.73130826  1308
STARLINK-5294           
1 54159U 22141C   22317.91667824  .00024547  00000+0  17903-3 0  9996
2 54159  53.2195  60.4238 0002652  27.9407 187.3491 15.73169232  2686
STARLINK-5233           
1 54160U 22141D   22317.91667824  .00045546  00000+0  32826-3 0  9991
2 54160  53.2178  60.3599 0002196  21.7688 223.3202 15.73120985  1305
STARLINK-5269           
1 54161U 22141E   22317.91667824  .00024664  00000+0  18012-3 0  9991
2 54161  53.2178  60.4198 0002462   9.7986 206.1764 15.73135334  1301
STARLINK-5273           
1 54162U 22141F   22317.91667824  .00029132  00000+0  21189-3 0  9996
2 54162  53.2181  60.4176 0002017  16.4454 200.6477 15.73129504  1305
STARLINK-5161           
1 54163U 22141G   22317.91667824 -.00075788  00000+0 -53984-3 0  9995
2 54163  53.2178  60.4110 0002600  25.9596 194.7511 15.73220841  2680
STARLINK-5278           
1 54164U 22141H   22317.91667824  .00023564  00000+0  17230-3 0  9993
2 54164  53.2179  60.4119 0002328  24.8896 195.1792 15.73135860  2681
STARLINK-5279           
1 54165U 22141J   22317.91667824  .00028762  00000+0  20855-3 0  9996
2 54165  53.2190  60.4176 0002413  20.5980 197.1822 15.73209890  2681
STARLINK-5280           
1 54166U 22141K   22317.91667824  .00028716  00000+0  20881-3 0  9995
2 54166  53.2174  60.4076 0001949  16.1585 205.1537 15.73144329  1304
STARLINK-5243           
1 54167U 22141L   22317.91667824  .00025133  00000+0  18346-3 0  9999
2 54167  53.2193  60.4166 0002416  24.1468 194.1552 15.73134234  1303
STARLINK-5245           
1 54168U 22141M   22317.91667824  .00026155  00000+0  19061-3 0  9990
2 54168  53.2175  60.4063 0002140  21.9808 200.5013 15.73147216  1305
STARLINK-5282           
1 54169U 22141N   22317.91667824  .00027657  00000+0  20163-3 0  9994
2 54169  53.2175  60.4121 0002353  23.7742 195.7463 15.73104853  2680
STARLINK-5155           
1 54170U 22141P   22317.91667824  .00028756  00000+0  20899-3 0  9993
2 54170  53.2187  60.4062 0002390  24.8055 198.2452 15.73155162  2673
STARLINK-5229           
1 54171U 22141Q   22317.91667824  .00032873  00000+0  23834-3 0  9991
2 54171  53.2182  60.4134 0002032  17.4020 201.4900 15.73138392  1302
STARLINK-5117           
1 54172U 22141R   22317.91667824  .00041179  00000+0  29687-3 0  9993
2 54172  53.2171  60.4011 0002483  19.7325 204.4870 15.73159560  1307
STARLINK-5242           
1 54173U 22141S   22317.91667824  .00023712  00000+0  17337-3 0  9996
2 54173  53.2173  60.4070 0002219  22.7817 199.0759 15.73133653  1302
STARLINK-5248           
1 54174U 22141T   22317.91667824 -.00790522  00000+0 -51460-2 0  9993
2 54174  53.2169  59.6560 0001691  31.4302 198.2619 15.77351151  1306
STARLINK-5256           
1 54175U 22141U   22317.91667824  .00031418  00000+0  22774-3 0  9991
2 54175  53.2176  60.4033 0002473  21.8136 201.8478 15.73167002  1307
STARLINK-5154           
1 54176U 22141V   22317.91667824  .00021562  00000+0  15790-3 0  9991
2 54176  53.2167  60.3958 0002556  24.9215 201.7603 15.73161901  1308
STARLINK-5186           
1 54177U 22141W   22317.91667824  .00027283  00000+0  19842-3 0  9990
2 54177  53.2182  60.4019 0002509  30.2886 194.5468 15.73169893  1303
STARLINK-5164           
1 54178U 22141X   22317.91667824  .00028073  00000+0  20422-3 0  9995
2 54178  53.2167  60.3944 0002300  16.1987 211.0684 15.73146951  1302
STARLINK-5122           
1 54179U 22141Y   22317.91667824 -.00054586  00000+0 -38629-3 0  9994
2 54179  53.2173  60.3995 0002049  24.9810 200.5553 15.73242003  1301
STARLINK-5228           
1 54180U 22141Z   22317.91667824  .00028460  00000+0  20705-3 0  9992
2 54180  53.2167  60.3883 0002167  22.3504 207.8518 15.73137674  1303
STARLINK-5227           
1 54181U 22141AA  22317.91667824  .00029107  00000+0  21145-3 0  9991
2 54181  53.2171  60.3940 0002660  29.5658 198.2507 15.73157721  1306
STARLINK-5231           
1 54182U 22141AB  22317.91667824  .00027272  00000+0  19869-3 0  9993
2 54182  53.2157  60.3826 0002369  22.3205 210.2676 15.73128982  1308
STARLINK-5239           
1 54183U 22141AC  22317.91667824  .00016559  00000+0  12233-3 0  9998
2 54183  53.2177  60.3915 0002490  31.5052 198.1397 15.73168465  1301
STARLINK-5162           
1 54184U 22141AD  22317.91667824  .00027725  00000+0  20166-3 0  9990
2 54184  53.2155  60.3852 0002366  23.4730 207.3762 15.73157164  1306
STARLINK-5235           
1 54185U 22141AE  22317.91667824  .00027061  00000+0  19717-3 0  9994
2 54185  53.2190  60.3941 0002273  13.0148 215.9993 15.73131880  1308
STARLINK-5194           
1 54186U 22141AF  22317.91667824  .00026691  00000+0  19449-3 0  9995
2 54186  53.2160  60.3799 0002257  23.2906 210.5405 15.73138383  2916
STARLINK-5240           
1 54187U 22141AG  22317.91667824  .00043104  00000+0  31109-3 0  9991
2 54187  53.2176  60.3932 0002192  29.3267 199.0703 15.73113318  1303
STARLINK-5238           
1 54188U 22141AH  22317.91667824  .00027651  00000+0  20132-3 0  9995
2 54188  53.2144  60.3788 0002358  24.7348 208.4908 15.73135748  1304
STARLINK-5182           
1 54189U 22141AJ  22317.91667824  .00028104  00000+0  20450-3 0  9993
2 54189  53.2171  60.3867 0002459  13.5163 217.9280 15.73140175  1304
STARLINK-5281           
1 54190U 22141AK  22317.91667824  .00023922  00000+0  17461-3 0  9996
2 54190  53.2162  60.3795 0002110  25.5052 208.8422 15.73167886  1305
STARLINK-4619           
1 54191U 22141AL  22317.91667824 -.00070821  00000+0 -50433-3 0  9995
2 54191  53.2164  60.3840 0002472  23.5129 208.5469 15.73200304  1304
STARLINK-5268           
1 54192U 22141AM  22317.91667824 -.00065892  00000+0 -46839-3 0  9993
2 54192  53.2169  60.3694 0002373  18.5074 221.2386 15.73213586  1306
STARLINK-5263           
1 54193U 22141AN  22317.91667824  .00024081  00000+0  17572-3 0  9999
2 54193  53.2163  60.3775 0002362  23.6192 211.9264 15.73169679  1301
STARLINK-5271           
1 54194U 22141AP  22317.91667824  .00024880  00000+0  18141-3 0  9990
2 54194  53.2170  60.3751 0002297  19.4964 217.2646 15.73166971  2914
STARLINK-5258           
1 54195U 22141AQ  22317.91667824  .00026242  00000+0  19117-3 0  9999
2 54195  53.2171  60.3793 0002192  23.9489 211.0112 15.73154869  1303
STARLINK-5237           
1 54196U 22141AR  22317.91667824  .00027377  00000+0  19933-3 0  9996
2 54196  53.2167  60.3725 0002049  20.9179 217.0437 15.73141997  1302
STARLINK-5234           
1 54197U 22141AS  22317.91667824 -.00075194  00000+0 -53631-3 0  9992
2 54197  53.2176  60.3769 0002085  21.1112 215.2207 15.73189822  1305
STARLINK-5246           
1 54198U 22141AT  22317.91667824 -.00078454  00000+0 -55979-3 0  9992
2 54198  53.2168  60.3708 0002174  33.0238 205.6308 15.73196768  1302
STARLINK-5244           
1 54199U 22141AU  22317.91667824  .00027429  00000+0  19979-3 0  9997
2 54199  53.2172  60.3741 0002481  21.7013 215.6808 15.73130433  1304
STARLINK-5250           
1 54200U 22141AV  22317.91667824  .00051701  00000+0  37204-3 0  9991
2 54200  53.2140  60.3635 0002117  26.3703 213.9684 15.73102939  1300
STARLINK-5199           
1 54201U 22141AW  22317.91667824  .00043806  00000+0  31598-3 0  9999
2 54201  53.2163  60.3663 0002246  19.8794 221.0375 15.73118810  1309
STARLINK-5205           
1 54202U 22141AX  22317.91667824  .00029828  00000+0  21680-3 0  9999
2 54202  53.2156  60.3637 0001883  13.4423 228.0527 15.73132804  1303
STARLINK-5247           
1 54203U 22141AY  22317.91667824  .00036730  00000+0  26589-3 0  9993
2 54203  53.2158  60.3686 0002135  28.7550 210.4213 15.73117889  1304
STARLINK-5241           
1 54204U 22141AZ  22317.91667824  .00032876  00000+0  23779-3 0  9999
2 54204  53.2161  60.3600 0002182  24.1773 219.2261 15.73194614  1305
STARLINK-5249           
1 54205U 22141BA  22317.91667824  .00058719  00000+0  42146-3 0  9993
2 54205  53.2159  60.3630 0002146  25.8116 216.3046 15.73110423  1300
STARLINK-5264           
1 54206U 22141BB  22317.91667824 -.00058416  00000+0 -41309-3 0  9990
2 54206  53.2150  59.9316 0001375  14.7324  77.0500 15.73289806  1307
